{
"type": "FeatureCollection",
"name": "bangkok_districts",
"crs": { "type": "name", "properties": { "name": "urn:ogc:def:crs:OGC:1.3:CRS84" } },
"features": [
{ "type": "Feature", "properties": { "name": "Phra Nakhon" }, "geometry": { "type": "Polygon", "coordinates": [ [ [ 100.503464211000107, 13.745215853000104 ], [ 100.499806690000071, 13.738632557000017 ], [ 100.492299179000156, 13.741796685 ], [ 100.488635773000112, 13.747409743999981 ], [ 100.487644537000165, 13.75270722700003 ], [ 100.489244114000087, 13.75979922199997 ], [ 100.494997447000117, 13.765741690000141 ], [ 100.499039813000138, 13.77266572700006 ], [ 100.503673636000087, 13.769952149000062 ], [ 100.5093992460001, 13.763650817000098 ], [ 100.505707938000171, 13.756182284000033 ], [ 100.503464211000107, 13.745215853000104 ] ] ] } },
{ "type": "Feature", "properties": { "name": "Dusit" }, "geometry": { "type": "Polygon", "coordinates": [ [ [ 100.516497561000051, 13.800358098000117 ], [ 100.532330992000141, 13.798213084999986 ], [ 100.533203826000033, 13.799827589000188 ], [ 100.537424276000195, 13.797854428999983 ], [ 100.519133728000099, 13.752637297000092 ], [ 100.517371460000163, 13.753099860000077 ], [ 100.515964386000064, 13.757221289000086 ], [ 100.503856819000077, 13.76977598700006 ], [ 100.499039813000138, 13.77266572700006 ], [ 100.505257334000191, 13.785970392000024 ], [ 100.513886854000134, 13.795300032000114 ], [ 100.516497561000051, 13.800358098000117 ] ] ] } },
{ "type": "Feature", "properties": { "name": "Nong Chok" }, "geometry": { "type": "Polygon", "coordinates": [ [ [ 100.913981584000112, 13.946210601000075 ], [ 100.906785141000171, 13.885262996000051 ], [ 100.905894150000108, 13.855226551000044 ], [ 100.904204648000132, 13.848422871000025 ], [ 100.912684786999989, 13.846797639000044 ], [ 100.90754927800009, 13.838104561000023 ], [ 100.938516257000174, 13.814255677000062 ], [ 100.928911591000031, 13.801808612000059 ], [ 100.909794635000139, 13.790478869000083 ], [ 100.890433336, 13.756152690000079 ], [ 100.878833007000082, 13.737877175000051 ], [ 100.877556686000048, 13.73809109299998 ], [ 100.874716199000147, 13.739291811000044 ], [ 100.867064814000059, 13.751820970000153 ], [ 100.864647279000167, 13.765137421000134 ], [ 100.860800766000125, 13.770468382999979 ], [ 100.842630487000122, 13.770976756000039 ], [ 100.837493806999987, 13.767599928000038 ], [ 100.832346599000118, 13.767476747000103 ], [ 100.829232669000191, 13.772183821000169 ], [ 100.822700326000188, 13.777811069 ], [ 100.822808325000153, 13.779778265000061 ], [ 100.814745613000071, 13.784276181000052 ], [ 100.808777009000039, 13.781637599000078 ], [ 100.799434747000134, 13.781865311000104 ], [ 100.793627059000073, 13.78415788500007 ], [ 100.796094883000194, 13.788696600000151 ], [ 100.795093110000153, 13.793974302000038 ], [ 100.796820778000097, 13.797121856000047 ], [ 100.807746529000042, 13.807982100000174 ], [ 100.803489079000201, 13.807973872 ], [ 100.801768219999985, 13.809458381000184 ], [ 100.800916312000027, 13.817453729000022 ], [ 100.803925336000134, 13.825869813000054 ], [ 100.805905945000177, 13.826092161000133 ], [ 100.808009659000106, 13.837046534000137 ], [ 100.806510786, 13.84409701900006 ], [ 100.801830977000122, 13.842515162000154 ], [ 100.787421596000115, 13.879987173000075 ], [ 100.79094480800012, 13.881906568000147 ], [ 100.79593385600009, 13.890548881000143 ], [ 100.792337659000168, 13.893505661 ], [ 100.792598843000121, 13.931544750000114 ], [ 100.863307873000167, 13.939143053000066 ], [ 100.913981584000112, 13.946210601000075 ] ] ] } },
{ "type": "Feature", "properties": { "name": "Bang Rak" }, "geometry": { "type": "Polygon", "coordinates": [ [ [ 100.517030325000064, 13.718081898000094 ], [ 100.512031695000189, 13.719335614000101 ], [ 100.512298349000048, 13.729392587000063 ], [ 100.515502248000189, 13.732442945000059 ], [ 100.515687797000169, 13.738046738000151 ], [ 100.544745374000058, 13.726166253000088 ], [ 100.517030325000064, 13.718081898000094 ] ] ] } },
{ "type": "Feature", "properties": { "name": "Bang Khen" }, "geometry": { "type": "Polygon", "coordinates": [ [ [ 100.611365009000053, 13.892403995000166 ], [ 100.60879778400016, 13.888467928000182 ], [ 100.610868050000022, 13.886772847000032 ], [ 100.623089857000082, 13.883034871000177 ], [ 100.629542807000064, 13.885542878000138 ], [ 100.633979397000132, 13.885162089000119 ], [ 100.640195117000189, 13.886752243999979 ], [ 100.64295285500009, 13.885728264000022 ], [ 100.643093156000077, 13.883244429000115 ], [ 100.644246154000086, 13.882761448 ], [ 100.652509477000137, 13.88292603400015 ], [ 100.653111064000086, 13.886380402000157 ], [ 100.655336638000051, 13.885582849000116 ], [ 100.65677789900019, 13.880902745000128 ], [ 100.661822117999975, 13.878761006000104 ], [ 100.664119088000177, 13.879491573000109 ], [ 100.664838610000174, 13.881078719000129 ], [ 100.669584223000186, 13.881111450999981 ], [ 100.672530973999983, 13.879678031000083 ], [ 100.673808066000163, 13.881099593999977 ], [ 100.675809233000109, 13.879105021999976 ], [ 100.681312140000045, 13.879676755000162 ], [ 100.684496507000176, 13.874248293000051 ], [ 100.685752838000099, 13.869210719000137 ], [ 100.683114280000098, 13.862001746000089 ], [ 100.680365520000066, 13.858667276000062 ], [ 100.675457492000191, 13.856381383000041 ], [ 100.668989732999989, 13.856832330000088 ], [ 100.664769325000066, 13.854696260000139 ], [ 100.663199931000065, 13.856033389000174 ], [ 100.66114468700016, 13.852579409000043 ], [ 100.658303030000127, 13.852391377000117 ], [ 100.658640148000131, 13.847763352000072 ], [ 100.648730639000121, 13.84621126899998 ], [ 100.648148988000059, 13.847620618000178 ], [ 100.640856860000099, 13.846648279000078 ], [ 100.632922438000151, 13.84254414600008 ], [ 100.628675661000045, 13.842689087000053 ], [ 100.619753493000076, 13.84844299100007 ], [ 100.606987397000012, 13.849267936000047 ], [ 100.602362135000135, 13.846864564000157 ], [ 100.589866099000062, 13.843929078000087 ], [ 100.586480831000074, 13.85903980900008 ], [ 100.588143762000129, 13.879615240000135 ], [ 100.595385620000116, 13.888226403000033 ], [ 100.611131830000033, 13.899779846000172 ], [ 100.60869668800018, 13.895703521000144 ], [ 100.611365009000053, 13.892403995000166 ] ] ] } },
{ "type": "Feature", "properties": { "name": "Bang Kapi" }, "geometry": { "type": "Polygon", "coordinates": [ [ [ 100.62598073900017, 13.819306537000045 ], [ 100.631333863000066, 13.819191422000188 ], [ 100.631000804000166, 13.815476059000162 ], [ 100.634103588000187, 13.80949842800004 ], [ 100.639251773000069, 13.804108570000096 ], [ 100.64047689400013, 13.792226727000127 ], [ 100.642717013000095, 13.786944492000146 ], [ 100.648166858000081, 13.78477075700016 ], [ 100.647632866000151, 13.784076721000076 ], [ 100.65618110700018, 13.770707147000053 ], [ 100.664624408000066, 13.775369817000183 ], [ 100.668802897000035, 13.766623625000022 ], [ 100.669718972000055, 13.756283395000139 ], [ 100.678886566000074, 13.752104317000033 ], [ 100.67701455200006, 13.749064367000017 ], [ 100.672255852000148, 13.749486771000022 ], [ 100.666318117000117, 13.747047328000065 ], [ 100.663034630000141, 13.74220629500013 ], [ 100.663330947000077, 13.740227551000032 ], [ 100.659086135, 13.738385274999985 ], [ 100.648605092000139, 13.741820346000111 ], [ 100.64747608000016, 13.742633450000028 ], [ 100.648550294000188, 13.744072596000137 ], [ 100.645563788000175, 13.746450692000053 ], [ 100.635810138000181, 13.750120755000069 ], [ 100.611090408000166, 13.743826138000145 ], [ 100.601016139000137, 13.748230018000186 ], [ 100.615246889000048, 13.761274456000024 ], [ 100.630489333000185, 13.763254790000076 ], [ 100.628272913000103, 13.775646442000038 ], [ 100.629248748000123, 13.775091386000156 ], [ 100.63065504900004, 13.784105992000093 ], [ 100.629049330000157, 13.788697543000126 ], [ 100.6259130790001, 13.788103773000046 ], [ 100.623636508000118, 13.800218648000111 ], [ 100.615064201000052, 13.799774373000048 ], [ 100.624478120000106, 13.817398727000068 ], [ 100.62598073900017, 13.819306537000045 ] ] ] } },
{ "type": "Feature", "properties": { "name": "Pathum Wan" }, "geometry": { "type": "Polygon", "coordinates": [ [ [ 100.517371460000163, 13.753099860000077 ], [ 100.525289620000194, 13.749302932000148 ], [ 100.538907552000182, 13.749653206000175 ], [ 100.550075438000135, 13.748403346000146 ], [ 100.552912289000119, 13.722771623000085 ], [ 100.515687797000169, 13.738046738000151 ], [ 100.517371460000163, 13.753099860000077 ] ] ] } },
{ "type": "Feature", "properties": { "name": "Pom Prap Sattru Phai" }, "geometry": { "type": "Polygon", "coordinates": [ [ [ 100.515686813000116, 13.738699313000041 ], [ 100.503898198, 13.746847599000148 ], [ 100.505707938000171, 13.756182284000033 ], [ 100.5093992460001, 13.763650817000098 ], [ 100.517170964000059, 13.754997682000067 ], [ 100.515686813000116, 13.738699313000041 ] ] ] } },
{ "type": "Feature", "properties": { "name": "Phra Khanong" }, "geometry": { "type": "Polygon", "coordinates": [ [ [ 100.615960217000122, 13.706325711000034 ], [ 100.616317461000165, 13.70414670800011 ], [ 100.622394895000127, 13.705007862000116 ], [ 100.623208821000162, 13.703115572000058 ], [ 100.632943200999989, 13.703033000000175 ], [ 100.637113785000111, 13.695190662000186 ], [ 100.640236003000155, 13.677941022000084 ], [ 100.624654929000087, 13.678408503000128 ], [ 100.622771488000126, 13.684428812000078 ], [ 100.610524951000173, 13.68427643300015 ], [ 100.607534625000199, 13.682082277000177 ], [ 100.600332527000091, 13.679943095000056 ], [ 100.588769839000122, 13.683015013000045 ], [ 100.588613627000143, 13.690039910000166 ], [ 100.583919530000173, 13.69609611900006 ], [ 100.605742550000173, 13.70650927100013 ], [ 100.606419612000025, 13.705349186000149 ], [ 100.615960217000122, 13.706325711000034 ] ] ] } },
{ "type": "Feature", "properties": { "name": "Min Buri" }, "geometry": { "type": "Polygon", "coordinates": [ [ [ 100.801776416000166, 13.842644716000052 ], [ 100.806510786, 13.84409701900006 ], [ 100.808009574000039, 13.836939649000044 ], [ 100.805905945000177, 13.826092161000133 ], [ 100.803925336000134, 13.825869813000054 ], [ 100.801367990000131, 13.82019774500003 ], [ 100.801617488000147, 13.809942099000068 ], [ 100.803489079000201, 13.807973872 ], [ 100.807746529000042, 13.807982100000174 ], [ 100.797892561000083, 13.798701751000124 ], [ 100.795093110000153, 13.793974302000038 ], [ 100.791785756000081, 13.796015014000147 ], [ 100.788548590000119, 13.800390858000185 ], [ 100.781663766000122, 13.798342251000065 ], [ 100.783983029000069, 13.781901615000095 ], [ 100.776730821000058, 13.783204403000013 ], [ 100.764860516000169, 13.781725062000135 ], [ 100.759774706000201, 13.775500778000094 ], [ 100.755403678, 13.777777756000035 ], [ 100.746559895000019, 13.777874441000108 ], [ 100.746306916000151, 13.773481442000161 ], [ 100.738943659000142, 13.773224110000172 ], [ 100.738928295000107, 13.777403130000096 ], [ 100.733545261000017, 13.774784271000044 ], [ 100.724441058000195, 13.776302600000179 ], [ 100.720842436000169, 13.778255001000161 ], [ 100.716403176000199, 13.778113848000089 ], [ 100.707683481, 13.795655230000023 ], [ 100.70608059000017, 13.798328004000041 ], [ 100.70496396600015, 13.797679626 ], [ 100.70056308400018, 13.80458324500006 ], [ 100.701864077000096, 13.809140273000139 ], [ 100.698100613000122, 13.81184813800013 ], [ 100.696898012000133, 13.81460871500019 ], [ 100.705778473000123, 13.821144620000155 ], [ 100.715436738000164, 13.821897660000104 ], [ 100.714568682000106, 13.831335459000172 ], [ 100.720175532000042, 13.831495735000146 ], [ 100.720192455000131, 13.837278720000143 ], [ 100.722322673000178, 13.837492275000159 ], [ 100.722553678000168, 13.827513487000147 ], [ 100.729732394000109, 13.827673738000158 ], [ 100.729657680000173, 13.836450860000014 ], [ 100.735469084000158, 13.838456396000083 ], [ 100.735889325000187, 13.836785145000079 ], [ 100.739928537000083, 13.837395750000042 ], [ 100.744160482000041, 13.83476390800007 ], [ 100.746728450000035, 13.824752735000175 ], [ 100.748660519000111, 13.823929276000172 ], [ 100.749318425000183, 13.822072196000136 ], [ 100.798995965000074, 13.849289744000089 ], [ 100.801776416000166, 13.842644716000052 ] ] ] } },
{ "type": "Feature", "properties": { "name": "Lat Krabang" }, "geometry": { "type": "Polygon", "coordinates": [ [ [ 100.799107391, 13.78199198100009 ], [ 100.810027990000037, 13.781763163000164 ], [ 100.814745613000071, 13.784276181000052 ], [ 100.822808325000153, 13.779778265000061 ], [ 100.822700326000188, 13.777811069 ], [ 100.829232669000191, 13.772183821000169 ], [ 100.832346599000118, 13.767476747000103 ], [ 100.837493806999987, 13.767599928000038 ], [ 100.84202539000006, 13.770906694000132 ], [ 100.855686674000083, 13.771108034000065 ], [ 100.860800766000125, 13.770468382999979 ], [ 100.863693672000181, 13.767532897000137 ], [ 100.866568583000117, 13.758365915000127 ], [ 100.867064814000059, 13.751820970000153 ], [ 100.874822070000107, 13.739160355000024 ], [ 100.878833007000082, 13.737877175000051 ], [ 100.855068558000141, 13.699272504000078 ], [ 100.860766813000055, 13.696903409000072 ], [ 100.85934736500019, 13.689560424000092 ], [ 100.787952316000144, 13.716605352000158 ], [ 100.76674616400004, 13.715277461000142 ], [ 100.764514543000075, 13.716497030000028 ], [ 100.752083378000066, 13.715910431999987 ], [ 100.716246121000097, 13.718189041000187 ], [ 100.716159300000072, 13.716898804000095 ], [ 100.709994351000091, 13.716782075000083 ], [ 100.708324215000118, 13.731387956000049 ], [ 100.709858230000123, 13.75640150300012 ], [ 100.706606315000045, 13.756760642000074 ], [ 100.716080259000023, 13.771690494000097 ], [ 100.716403176000199, 13.778113848000089 ], [ 100.720842436000169, 13.778255001000161 ], [ 100.724441058000195, 13.776302600000179 ], [ 100.733545261000017, 13.774784271000044 ], [ 100.738928295000107, 13.777403130000096 ], [ 100.738943659000142, 13.773224110000172 ], [ 100.746306916000151, 13.773481442000161 ], [ 100.746559895000019, 13.777874441000108 ], [ 100.755403678, 13.777777756000035 ], [ 100.759774706000201, 13.775500778000094 ], [ 100.764860516000169, 13.781725062000135 ], [ 100.776730821000058, 13.783204403000013 ], [ 100.783983029000069, 13.781901615000095 ], [ 100.781663766000122, 13.798342251000065 ], [ 100.788548590000119, 13.800390858000185 ], [ 100.796212946000082, 13.79191110000005 ], [ 100.796094883000194, 13.788696600000151 ], [ 100.793667362000122, 13.784085719000132 ], [ 100.799107391, 13.78199198100009 ] ] ] } },
{ "type": "Feature", "properties": { "name": "Yan Nawa" }, "geometry": { "type": "Polygon", "coordinates": [ [ [ 100.549017609000089, 13.719250705999968 ], [ 100.553753915000129, 13.716543495000053 ], [ 100.554867192000131, 13.705483354000023 ], [ 100.551398431000109, 13.700082983000073 ], [ 100.552583705000131, 13.68796425 ], [ 100.551257708000094, 13.678517029000034 ], [ 100.548704066000198, 13.674039919000165 ], [ 100.544434006000188, 13.670496515000082 ], [ 100.539714727999979, 13.668956786000138 ], [ 100.534640932000116, 13.669821182000078 ], [ 100.516981846000078, 13.682678629000122 ], [ 100.531760577999989, 13.698253744000169 ], [ 100.528630965000161, 13.705985255000087 ], [ 100.534160617000055, 13.705539446000046 ], [ 100.537610019, 13.707226007000088 ], [ 100.539146422000044, 13.704425389000164 ], [ 100.543614317000163, 13.707010786000126 ], [ 100.541681858000061, 13.710600009000188 ], [ 100.544305396000027, 13.712311520000128 ], [ 100.549017609000089, 13.719250705999968 ] ] ] } },
{ "type": "Feature", "properties": { "name": "Samphanthawong" }, "geometry": { "type": "Polygon", "coordinates": [ [ [ 100.512964177000072, 13.729546940000148 ], [ 100.508024792000015, 13.736197769 ], [ 100.499806690000071, 13.738632557000017 ], [ 100.503898198, 13.746847599000148 ], [ 100.515687797000169, 13.738046738000151 ], [ 100.515502248000189, 13.732442945000059 ], [ 100.512964177000072, 13.729546940000148 ] ] ] } },
{ "type": "Feature", "properties": { "name": "Phaya Thai" }, "geometry": { "type": "Polygon", "coordinates": [ [ [ 100.537424276000195, 13.797854428999983 ], [ 100.561626586000045, 13.794959305000077 ], [ 100.561653050000075, 13.78807580400013 ], [ 100.548342729000069, 13.763548216 ], [ 100.543431214000179, 13.762715976000095 ], [ 100.527886491000174, 13.774338363000084 ], [ 100.537424276000195, 13.797854428999983 ] ] ] } },
{ "type": "Feature", "properties": { "name": "Thon Buri" }, "geometry": { "type": "Polygon", "coordinates": [ [ [ 100.492324669000141, 13.722861724000154 ], [ 100.493146127000102, 13.712914210000065 ], [ 100.49863760900007, 13.705137063999985 ], [ 100.492007730000125, 13.700614447000135 ], [ 100.489998091000189, 13.695261866000067 ], [ 100.482545280000011, 13.694834889000163 ], [ 100.479540932000134, 13.69803894100005 ], [ 100.476412050000079, 13.711178277000045 ], [ 100.47192024200001, 13.710365916000114 ], [ 100.468535800000154, 13.712388479000026 ], [ 100.469180665000124, 13.717654993000053 ], [ 100.471731408000039, 13.722516825000127 ], [ 100.478561568000089, 13.722594229000151 ], [ 100.484574891000193, 13.724873182000124 ], [ 100.487377633000108, 13.735195452000141 ], [ 100.491969798000184, 13.742172671000048 ], [ 100.497647898000139, 13.739218486000141 ], [ 100.492324669000141, 13.722861724000154 ] ] ] } },
{ "type": "Feature", "properties": { "name": "Bangkok Yai" }, "geometry": { "type": "Polygon", "coordinates": [ [ [ 100.488299250000068, 13.748209494000093 ], [ 100.491969798000184, 13.742172671000048 ], [ 100.487377633000108, 13.735195452000141 ], [ 100.484574891000193, 13.724873182000124 ], [ 100.475663797000095, 13.722219560000156 ], [ 100.471637968000152, 13.722443215000055 ], [ 100.467330869000193, 13.72512557400006 ], [ 100.462774951000142, 13.732631730000094 ], [ 100.462052192000158, 13.744419748000041 ], [ 100.466501103000098, 13.742955673000154 ], [ 100.470951816000195, 13.743146938000109 ], [ 100.477091017000191, 13.744056727000157 ], [ 100.478182454000034, 13.746355166000171 ], [ 100.482274234000158, 13.746123872 ], [ 100.488299250000068, 13.748209494000093 ] ] ] } },
{ "type": "Feature", "properties": { "name": "Huai Khwang" }, "geometry": { "type": "Polygon", "coordinates": [ [ [ 100.588383019999981, 13.802839008000035 ], [ 100.590184927000166, 13.786503221000146 ], [ 100.593521342000088, 13.779423726000118 ], [ 100.593156423000153, 13.772623803000158 ], [ 100.594910887000196, 13.762585534000152 ], [ 100.597924834000082, 13.757321488000116 ], [ 100.604095120000068, 13.751200633000053 ], [ 100.600286599000185, 13.747170899000025 ], [ 100.598151930000029, 13.741144634000136 ], [ 100.563297444000114, 13.747890403000099 ], [ 100.566098987000146, 13.76000145 ], [ 100.573416088000101, 13.770911003000037 ], [ 100.574896225000089, 13.801069838000046 ], [ 100.588383019999981, 13.802839008000035 ] ] ] } },
{ "type": "Feature", "properties": { "name": "Khlong San" }, "geometry": { "type": "Polygon", "coordinates": [ [ [ 100.499132674000066, 13.70538606100007 ], [ 100.493146127000102, 13.712914210000065 ], [ 100.492206084000031, 13.7231189580001 ], [ 100.497647898000139, 13.739218486000141 ], [ 100.506542314000114, 13.736977957000079 ], [ 100.509835038000062, 13.734816076000186 ], [ 100.512129863000155, 13.730062524000175 ], [ 100.512712302000125, 13.724273723000181 ], [ 100.512031695000189, 13.719335614000101 ], [ 100.509490683000081, 13.714170391000039 ], [ 100.506327034000094, 13.710303857000042 ], [ 100.499132674000066, 13.70538606100007 ] ] ] } },
{ "type": "Feature", "properties": { "name": "Taling Chan" }, "geometry": { "type": "Polygon", "coordinates": [ [ [ 100.411057705000133, 13.801346720000026 ], [ 100.458089858000051, 13.798324305000165 ], [ 100.464154291000057, 13.797313860000145 ], [ 100.469658381000045, 13.794790355000146 ], [ 100.465979274000176, 13.787567289000094 ], [ 100.467677970000011, 13.779695189000108 ], [ 100.461088152000116, 13.778955236000115 ], [ 100.457610904000035, 13.777296030000116 ], [ 100.453680304000045, 13.768807426000137 ], [ 100.454144077000137, 13.762992496000038 ], [ 100.461963029000117, 13.751559768 ], [ 100.462052192000158, 13.744419748000041 ], [ 100.45713014, 13.744060668000031 ], [ 100.456171892000157, 13.74212848500008 ], [ 100.454423388000066, 13.742619359000059 ], [ 100.449915498000109, 13.74049758600006 ], [ 100.435051376000047, 13.740088297000057 ], [ 100.432356131000063, 13.740427249000049 ], [ 100.431005161000201, 13.742294527000183 ], [ 100.421205046000125, 13.744342902000085 ], [ 100.416414037000095, 13.74736455599998 ], [ 100.406184700000097, 13.749437693 ], [ 100.411057705000133, 13.801346720000026 ] ] ] } },
{ "type": "Feature", "properties": { "name": "Bangkok Noi" }, "geometry": { "type": "Polygon", "coordinates": [ [ [ 100.469105991000163, 13.787104732000103 ], [ 100.490971988000069, 13.761928724000143 ], [ 100.487940010000159, 13.756848931000036 ], [ 100.488299250000068, 13.748209494000093 ], [ 100.482274234000158, 13.746123872 ], [ 100.478141287000085, 13.74634576699998 ], [ 100.477091017000191, 13.744056727000157 ], [ 100.464314761000196, 13.743395029999988 ], [ 100.462052192000158, 13.744419748000041 ], [ 100.461693289000038, 13.752234828999974 ], [ 100.454144077000137, 13.762992496000038 ], [ 100.453538338000044, 13.767649668999979 ], [ 100.454586511000173, 13.772205770000141 ], [ 100.457610904000035, 13.777296030000116 ], [ 100.461088152000116, 13.778955236000115 ], [ 100.467677970000011, 13.779695189000108 ], [ 100.465946149, 13.786814302000039 ], [ 100.467223701000194, 13.78759269800014 ], [ 100.469105991000163, 13.787104732000103 ] ] ] } },
{ "type": "Feature", "properties": { "name": "Bang Khun Thian" }, "geometry": { "type": "Polygon", "coordinates": [ [ [ 100.446797058000186, 13.682558432 ], [ 100.448621181000078, 13.681527655000082 ], [ 100.44884487600018, 13.675332466000043 ], [ 100.451548512000045, 13.675430839000114 ], [ 100.453428921000125, 13.66890231800005 ], [ 100.450387707, 13.660809143 ], [ 100.458300054000176, 13.657852015000117 ], [ 100.461150647000068, 13.658870914000147 ], [ 100.46460877300018, 13.655674945000101 ], [ 100.470333673000141, 13.659040329000049 ], [ 100.475654449, 13.63054298000003 ], [ 100.472147010000128, 13.624067820000164 ], [ 100.480317687000195, 13.617595130000041 ], [ 100.481712076000179, 13.615343514000074 ], [ 100.481601743000056, 13.61246149100009 ], [ 100.47947074800004, 13.605872491000071 ], [ 100.478187766000076, 13.605738278000047 ], [ 100.473126067000067, 13.599108645000172 ], [ 100.4736538840001, 13.593876167000133 ], [ 100.469707564000089, 13.592670140000052 ], [ 100.46686381100011, 13.596954049000033 ], [ 100.465868297000156, 13.603900447000115 ], [ 100.463947659000041, 13.605849187999979 ], [ 100.457547899000019, 13.604401302000099 ], [ 100.453968202000055, 13.606013685 ], [ 100.450832923000064, 13.594559305000132 ], [ 100.446595895000144, 13.587057955000148 ], [ 100.444462010999985, 13.553194148000159 ], [ 100.453693435000162, 13.501979764000168 ], [ 100.450240810000196, 13.50192122600015 ], [ 100.446250974000122, 13.499989658000175 ], [ 100.443058911000094, 13.500358685000094 ], [ 100.437083176000101, 13.496768709000037 ], [ 100.43493385000005, 13.498092646000089 ], [ 100.4349095930001, 13.496585818000085 ], [ 100.430737291000014, 13.495834451000178 ], [ 100.4272013100001, 13.49622519400009 ], [ 100.425812912000197, 13.497562762000086 ], [ 100.423691207000047, 13.495846568000047 ], [ 100.42304592500011, 13.496820329000059 ], [ 100.421627446000059, 13.494743155000151 ], [ 100.408838252000066, 13.493389571000023 ], [ 100.406824944000107, 13.50222 ], [ 100.40632586800001, 13.535797271000035 ], [ 100.414066977000061, 13.535871970000073 ], [ 100.414848270000164, 13.53883212500017 ], [ 100.418323043000157, 13.540538860000026 ], [ 100.420089729000154, 13.545241469000018 ], [ 100.414644136000106, 13.551455988000043 ], [ 100.415213885000128, 13.557151797000131 ], [ 100.412555998000187, 13.557241341000122 ], [ 100.411897763000184, 13.555476004000127 ], [ 100.408517730000199, 13.554532946999984 ], [ 100.404369170000166, 13.555059349000032 ], [ 100.401019897000026, 13.552822426000148 ], [ 100.395822016000125, 13.553472173000159 ], [ 100.39467028200005, 13.554985738000084 ], [ 100.3931211740001, 13.561474597000085 ], [ 100.391306642000075, 13.563261139000076 ], [ 100.390612906000058, 13.56757901800006 ], [ 100.391485228000136, 13.568898409000042 ], [ 100.389487908000035, 13.569784795000032 ], [ 100.387979578000113, 13.574289646000182 ], [ 100.386647362000019, 13.574693936000074 ], [ 100.386604343000101, 13.577947255000026 ], [ 100.384995226000115, 13.579129454000054 ], [ 100.385974913000098, 13.584963827000081 ], [ 100.384361682000076, 13.589517468000167 ], [ 100.378518194000151, 13.594277249000072 ], [ 100.376482084000088, 13.619703151000067 ], [ 100.446797058000186, 13.682558432 ] ] ] } },
{ "type": "Feature", "properties": { "name": "Phasi Charoen" }, "geometry": { "type": "Polygon", "coordinates": [ [ [ 100.427765879000049, 13.742350572000078 ], [ 100.431005161000201, 13.742294527000183 ], [ 100.432356131000063, 13.740427249000049 ], [ 100.435051376000047, 13.740088297000057 ], [ 100.449875147000057, 13.740492897000138 ], [ 100.454423388000066, 13.742619359000059 ], [ 100.456171892000157, 13.74212848500008 ], [ 100.45713014, 13.744060668000031 ], [ 100.462052192000158, 13.744419748000041 ], [ 100.461601678000193, 13.739264295999988 ], [ 100.462933732000067, 13.732249306000085 ], [ 100.467191312000068, 13.725267654999982 ], [ 100.471675029000096, 13.722740125000144 ], [ 100.469234675000166, 13.715962863000186 ], [ 100.462839612000096, 13.717891199 ], [ 100.463335586000085, 13.714834017000044 ], [ 100.455197235000071, 13.7125774860001 ], [ 100.4558900950002, 13.708429348999971 ], [ 100.452744352000082, 13.710118799000156 ], [ 100.449985339000136, 13.705328880000081 ], [ 100.439113275000125, 13.709361467 ], [ 100.434700138000096, 13.698903319000181 ], [ 100.437733905000186, 13.693684476000101 ], [ 100.427821371000164, 13.68761303000008 ], [ 100.424869590000128, 13.732060242000102 ], [ 100.417756244000032, 13.731224288000021 ], [ 100.416668108000067, 13.735610698000016 ], [ 100.415511016000096, 13.735832908000134 ], [ 100.41597292400013, 13.738278807000086 ], [ 100.414408079000054, 13.738800737000076 ], [ 100.413389564000056, 13.74793375400003 ], [ 100.427765879000049, 13.742350572000078 ] ] ] } },
{ "type": "Feature", "properties": { "name": "Nong Khaem" }, "geometry": { "type": "Polygon", "coordinates": [ [ [ 100.359596527000122, 13.737484026000118 ], [ 100.3814077090002, 13.691572330000099 ], [ 100.385235775000012, 13.675939875000154 ], [ 100.384844482000062, 13.67140188400009 ], [ 100.383251587000188, 13.671688173000064 ], [ 100.360565587000053, 13.661301027000036 ], [ 100.357257395000033, 13.661681299000065 ], [ 100.356613754000193, 13.65990043000005 ], [ 100.351107887000182, 13.65748020000018 ], [ 100.348760945000151, 13.654818178000028 ], [ 100.339383547000125, 13.654990333000114 ], [ 100.341251029000148, 13.661313715 ], [ 100.337599800000078, 13.677326406000191 ], [ 100.336068941000178, 13.676991674000021 ], [ 100.333567164000044, 13.681404414000099 ], [ 100.330558200000098, 13.699174627000048 ], [ 100.332353104000106, 13.699917702000164 ], [ 100.333426902000156, 13.706487572000185 ], [ 100.332325335000064, 13.712464130000171 ], [ 100.334144358000174, 13.713061560000028 ], [ 100.336116762000131, 13.710822960000087 ], [ 100.338772100000085, 13.712768633000053 ], [ 100.333110726000086, 13.720837635000123 ], [ 100.330332856000098, 13.719719976000079 ], [ 100.33022786000015, 13.721216534000121 ], [ 100.33573900000016, 13.722985034000033 ], [ 100.33477338199998, 13.728392823000149 ], [ 100.336743631000047, 13.729793667000024 ], [ 100.335140428000159, 13.73348518 ], [ 100.337485818000061, 13.73390892000009 ], [ 100.337455281000132, 13.736036288999969 ], [ 100.359596527000122, 13.737484026000118 ] ] ] } },
{ "type": "Feature", "properties": { "name": "Rat Burana" }, "geometry": { "type": "Polygon", "coordinates": [ [ [ 100.489998091000189, 13.695261866000067 ], [ 100.491824693000183, 13.691569282000046 ], [ 100.495558776000109, 13.688490226 ], [ 100.513377468000101, 13.684376386000167 ], [ 100.523401157000137, 13.677882705000115 ], [ 100.520401051000078, 13.675643335000132 ], [ 100.522001174000025, 13.673561966000136 ], [ 100.520418629000119, 13.670989284000086 ], [ 100.521063597000193, 13.669191739000098 ], [ 100.517590872000198, 13.667289883000137 ], [ 100.517515207000201, 13.661599672000136 ], [ 100.513280069000075, 13.66074493900004 ], [ 100.508227019000174, 13.662746407999975 ], [ 100.50586518800003, 13.658913626000128 ], [ 100.504741809000109, 13.659430863000011 ], [ 100.501007841000046, 13.652963113999988 ], [ 100.494040866000148, 13.657261256000027 ], [ 100.493252615000188, 13.655744170000048 ], [ 100.485390541000186, 13.657828497000139 ], [ 100.482327330000146, 13.663070828 ], [ 100.475796512000102, 13.661882128000059 ], [ 100.475563556000054, 13.663577070000144 ], [ 100.482132512000192, 13.664770629000031 ], [ 100.480190632000074, 13.669203700000139 ], [ 100.488534539000057, 13.679530983000063 ], [ 100.487359314000116, 13.682491625000068 ], [ 100.488983287000053, 13.684649896000053 ], [ 100.48185966300008, 13.689871466000056 ], [ 100.482098428000199, 13.693942770000149 ], [ 100.483451346000038, 13.694988693000084 ], [ 100.489998091000189, 13.695261866000067 ] ] ] } },
{ "type": "Feature", "properties": { "name": "Bang Phlat" }, "geometry": { "type": "Polygon", "coordinates": [ [ [ 100.514504816999988, 13.796156336000081 ], [ 100.50365272200014, 13.783575449000182 ], [ 100.496631826000112, 13.768085862000135 ], [ 100.490971988000069, 13.761928724000143 ], [ 100.469105991000163, 13.787104732000103 ], [ 100.4659386900002, 13.787158609000187 ], [ 100.466176870000197, 13.788917403000028 ], [ 100.500681346000135, 13.800499168000044 ], [ 100.515255130000185, 13.81327484000019 ], [ 100.517413623000152, 13.809200858999986 ], [ 100.517219798000042, 13.802540088000171 ], [ 100.514504816999988, 13.796156336000081 ] ] ] } },
{ "type": "Feature", "properties": { "name": "Din Daeng" }, "geometry": { "type": "Polygon", "coordinates": [ [ [ 100.574891336000121, 13.800991478000128 ], [ 100.57274211500004, 13.769179521000126 ], [ 100.566835185000173, 13.761524598999983 ], [ 100.564968500000134, 13.755126213000153 ], [ 100.552465391999988, 13.755988232000163 ], [ 100.55039728200012, 13.758688550000102 ], [ 100.543431214000179, 13.762715976000095 ], [ 100.548342729000069, 13.763548216 ], [ 100.561307459000034, 13.787063635000152 ], [ 100.561626586000045, 13.794959305000077 ], [ 100.566456863000099, 13.794678062000173 ], [ 100.567465202000164, 13.799281553000128 ], [ 100.574891336000121, 13.800991478000128 ] ] ] } },
{ "type": "Feature", "properties": { "name": "Bueng Kum" }, "geometry": { "type": "Polygon", "coordinates": [ [ [ 100.648616587000106, 13.833881425000186 ], [ 100.657304995000061, 13.835574575000123 ], [ 100.657906247000085, 13.832988452000109 ], [ 100.66142267000015, 13.833478608000121 ], [ 100.661265643000036, 13.825779140000066 ], [ 100.660132313000076, 13.824427495000066 ], [ 100.662866591000181, 13.810090302000162 ], [ 100.664030007000179, 13.809995088000107 ], [ 100.666646813000114, 13.805101250000178 ], [ 100.668683263000048, 13.805671519000043 ], [ 100.673539328000118, 13.796316345000093 ], [ 100.674646481000138, 13.790120658000035 ], [ 100.676566690000129, 13.786744 ], [ 100.673803720000137, 13.783834504000026 ], [ 100.6751353410001, 13.781205881000062 ], [ 100.65618110700018, 13.770707147000053 ], [ 100.647632866000151, 13.784076721000076 ], [ 100.648166858000081, 13.78477075700016 ], [ 100.642717013000095, 13.786944492000146 ], [ 100.64047689400013, 13.792226727000127 ], [ 100.639251773000069, 13.804108570000096 ], [ 100.634103588000187, 13.80949842800004 ], [ 100.631000804000166, 13.815476059000162 ], [ 100.631333863000066, 13.819191422000188 ], [ 100.62598073900017, 13.819306537000045 ], [ 100.624478120000106, 13.817398727000068 ], [ 100.631292615000064, 13.83378114900006 ], [ 100.637121758000148, 13.844668458000172 ], [ 100.639100281000196, 13.846104058000094 ], [ 100.645986850000043, 13.847368251000148 ], [ 100.650158730000044, 13.845100721000108 ], [ 100.647726515000159, 13.84416764600013 ], [ 100.648616587000106, 13.833881425000186 ] ] ] } },
{ "type": "Feature", "properties": { "name": "Sathon" }, "geometry": { "type": "Polygon", "coordinates": [ [ [ 100.552912289000119, 13.722771623000085 ], [ 100.553753915000129, 13.716543495000053 ], [ 100.549017609000089, 13.719250705999968 ], [ 100.544305396000027, 13.712311520000128 ], [ 100.541681858000061, 13.710600009000188 ], [ 100.543614317000163, 13.707010786000126 ], [ 100.539146422000044, 13.704425389000164 ], [ 100.537610019, 13.707226007000088 ], [ 100.534160617000055, 13.705539446000046 ], [ 100.528630965000161, 13.705985255000087 ], [ 100.529945739000198, 13.702543641000091 ], [ 100.5269495, 13.701043152000182 ], [ 100.524924426000155, 13.700885524000114 ], [ 100.520642896000084, 13.704169848000106 ], [ 100.519675719000077, 13.703222842000059 ], [ 100.514625296000133, 13.704920816000026 ], [ 100.516953740000019, 13.709648942000115 ], [ 100.508170897000127, 13.712460984000074 ], [ 100.512031695000189, 13.719335614000101 ], [ 100.517414002000123, 13.718105788000116 ], [ 100.544745374000058, 13.726166253000088 ], [ 100.552912289000119, 13.722771623000085 ] ] ] } },
{ "type": "Feature", "properties": { "name": "Bang Sue" }, "geometry": { "type": "Polygon", "coordinates": [ [ [ 100.543629472000077, 13.849628112000175 ], [ 100.537117045000116, 13.821651881000093 ], [ 100.54284895800015, 13.820933363000165 ], [ 100.545025037000187, 13.817930728000135 ], [ 100.537424276000195, 13.797854428999983 ], [ 100.533203826000033, 13.799827589000188 ], [ 100.532330992000141, 13.798213084999986 ], [ 100.516497561000051, 13.800358098000117 ], [ 100.517672399000105, 13.80518898300005 ], [ 100.516953553000121, 13.810578653000164 ], [ 100.514398321000101, 13.813896047000185 ], [ 100.507400598000061, 13.816038387000162 ], [ 100.506276961000083, 13.819124665000061 ], [ 100.507635379000078, 13.822765911999966 ], [ 100.510121712000171, 13.824187724000012 ], [ 100.509394987000178, 13.825622272999965 ], [ 100.51183329100013, 13.826076711000098 ], [ 100.51312150300015, 13.824750466000069 ], [ 100.513341636000121, 13.826261561000138 ], [ 100.535974270000111, 13.846042003000036 ], [ 100.543629472000077, 13.849628112000175 ] ] ] } },
{ "type": "Feature", "properties": { "name": "Chatuchak" }, "geometry": { "type": "Polygon", "coordinates": [ [ [ 100.586685274000047, 13.858328677000031 ], [ 100.591117974000156, 13.837485107000077 ], [ 100.58914278400016, 13.824092101000019 ], [ 100.588341394000111, 13.802980926999965 ], [ 100.581931657000098, 13.802790835000053 ], [ 100.567465202000164, 13.799281553000128 ], [ 100.566088161000152, 13.794608098000083 ], [ 100.537424276000195, 13.797854428999983 ], [ 100.545002336000152, 13.817713745000049 ], [ 100.543407370000182, 13.820661906000169 ], [ 100.537117045000116, 13.821651881000093 ], [ 100.543629472000077, 13.849628112000175 ], [ 100.56675064500007, 13.855981788000065 ], [ 100.586685274000047, 13.858328677000031 ] ] ] } },
{ "type": "Feature", "properties": { "name": "Bang Kho Laem" }, "geometry": { "type": "Polygon", "coordinates": [ [ [ 100.519662410000137, 13.703230845000121 ], [ 100.520642896000084, 13.704169848000106 ], [ 100.524924426000155, 13.700885524000114 ], [ 100.529945739000198, 13.702543641000091 ], [ 100.531760577999989, 13.698253744000169 ], [ 100.516981846000078, 13.682678629000122 ], [ 100.496248472000161, 13.688187783000103 ], [ 100.49027033200008, 13.694131172000084 ], [ 100.490437004000171, 13.698118857999987 ], [ 100.492764676000036, 13.701439261000189 ], [ 100.502769572000091, 13.70746227300009 ], [ 100.508170897000127, 13.712460984000074 ], [ 100.516953740000019, 13.709648942000115 ], [ 100.514625296000133, 13.704920816000026 ], [ 100.519662410000137, 13.703230845000121 ] ] ] } },
{ "type": "Feature", "properties": { "name": "Prawet" }, "geometry": { "type": "Polygon", "coordinates": [ [ [ 100.659010556000055, 13.737862488000189 ], [ 100.708393226000055, 13.732496905000062 ], [ 100.712381350000157, 13.701243924000096 ], [ 100.711093487000085, 13.701201226000137 ], [ 100.709812963000161, 13.690844229 ], [ 100.706412717000035, 13.678615354999977 ], [ 100.705462270000169, 13.678801858000043 ], [ 100.704664815000172, 13.672976601000073 ], [ 100.699759324000127, 13.663843751000115 ], [ 100.698271323000199, 13.65632908300006 ], [ 100.678623037000193, 13.661364491000143 ], [ 100.666466526000079, 13.667212900000095 ], [ 100.666907569000045, 13.668169753000086 ], [ 100.661124557000107, 13.67171082200008 ], [ 100.65986768200014, 13.670159605000094 ], [ 100.655435536000198, 13.672286784000107 ], [ 100.653792291000059, 13.66897558800008 ], [ 100.645829510000169, 13.669297229000108 ], [ 100.6406346, 13.676307448000102 ], [ 100.63717479200011, 13.694967227000063 ], [ 100.634111124000128, 13.700761585000066 ], [ 100.650996973000076, 13.702974532000098 ], [ 100.649187758000039, 13.707435986000121 ], [ 100.651549581000097, 13.718250777000094 ], [ 100.647929962000035, 13.717473049000091 ], [ 100.649796374000118, 13.72876863800002 ], [ 100.651833067000155, 13.729502515000092 ], [ 100.653477597000119, 13.733365795 ], [ 100.659010556000055, 13.737862488000189 ] ] ] } },
{ "type": "Feature", "properties": { "name": "Khlong Toei" }, "geometry": { "type": "Polygon", "coordinates": [ [ [ 100.598406456000134, 13.710325389000047 ], [ 100.601658937000025, 13.704666227000018 ], [ 100.583919530000173, 13.69609611900006 ], [ 100.577717870000072, 13.700222374000134 ], [ 100.567125009000165, 13.704514554000184 ], [ 100.559839923000084, 13.706203358000096 ], [ 100.554867192000131, 13.705483354000023 ], [ 100.550695327000199, 13.742848937000019 ], [ 100.554163756000037, 13.741575566000108 ], [ 100.598406456000134, 13.710325389000047 ] ] ] } },
{ "type": "Feature", "properties": { "name": "Suan Luang" }, "geometry": { "type": "Polygon", "coordinates": [ [ [ 100.635701450000056, 13.750116889000083 ], [ 100.648063955, 13.744600497000022 ], [ 100.64747608000016, 13.742633450000028 ], [ 100.648605092000139, 13.741820346000111 ], [ 100.659176836000142, 13.738269673000048 ], [ 100.653477597000119, 13.733365795 ], [ 100.651833067000155, 13.729502515000092 ], [ 100.649796374000118, 13.72876863800002 ], [ 100.647929962000035, 13.717473049000091 ], [ 100.651549581000097, 13.718250777000094 ], [ 100.649187758000039, 13.707435986000121 ], [ 100.650996973000076, 13.702974532000098 ], [ 100.634111124000128, 13.700761585000066 ], [ 100.632943200999989, 13.703033000000175 ], [ 100.623208821000162, 13.703115572000058 ], [ 100.622394895000127, 13.705007862000116 ], [ 100.616317461000165, 13.70414670800011 ], [ 100.615892633000044, 13.706841972 ], [ 100.606419612000025, 13.705349186000149 ], [ 100.601879566000093, 13.711945774000071 ], [ 100.602281577000042, 13.713285871000039 ], [ 100.606547190000128, 13.715208203000088 ], [ 100.606840066000188, 13.718899810000096 ], [ 100.605281719000118, 13.720144007000101 ], [ 100.60502214100012, 13.737714568 ], [ 100.598374454000179, 13.738393121000115 ], [ 100.598151930000029, 13.741144634000136 ], [ 100.600505771000201, 13.747474097000065 ], [ 100.60125180600005, 13.748090111000067 ], [ 100.610786658000052, 13.743812764000097 ], [ 100.635701450000056, 13.750116889000083 ] ] ] } },
{ "type": "Feature", "properties": { "name": "Chom Thong" }, "geometry": { "type": "Polygon", "coordinates": [ [ [ 100.462839612000096, 13.717891199 ], [ 100.469234675000166, 13.715962863000186 ], [ 100.468535800000154, 13.712388479000026 ], [ 100.471692309000105, 13.710468081000101 ], [ 100.476412050000079, 13.711178277000045 ], [ 100.479540932000134, 13.69803894100005 ], [ 100.482635001000062, 13.695223260000034 ], [ 100.481510259000117, 13.690485568999975 ], [ 100.488983287000053, 13.684649896000053 ], [ 100.487359314000116, 13.682491625000068 ], [ 100.488518359000182, 13.679468916000189 ], [ 100.480190632000074, 13.669203700000139 ], [ 100.482132512000192, 13.664770629000031 ], [ 100.475563556000054, 13.663577070000144 ], [ 100.475891573000069, 13.6608887000001 ], [ 100.470070049000185, 13.660184791000063 ], [ 100.470333673000141, 13.659040329000049 ], [ 100.46460877300018, 13.655674945000101 ], [ 100.461150647000068, 13.658870914000147 ], [ 100.458300054000176, 13.657852015000117 ], [ 100.450387707, 13.660809143 ], [ 100.453430489000084, 13.668851762000145 ], [ 100.451548512000045, 13.675430839000114 ], [ 100.44884487600018, 13.675332466000043 ], [ 100.448545189000185, 13.681701549000081 ], [ 100.447263820000103, 13.681563603000029 ], [ 100.434700138000096, 13.698903319000181 ], [ 100.439169951000167, 13.709399271000109 ], [ 100.449985339000136, 13.705328880000081 ], [ 100.452744352000082, 13.710118799000156 ], [ 100.4558900950002, 13.708429348999971 ], [ 100.455197235000071, 13.7125774860001 ], [ 100.463335586000085, 13.714834017000044 ], [ 100.462839612000096, 13.717891199 ] ] ] } },
{ "type": "Feature", "properties": { "name": "Don Mueang" }, "geometry": { "type": "Polygon", "coordinates": [ [ [ 100.613889496000127, 13.954619222000076 ], [ 100.62254545900015, 13.950251041000058 ], [ 100.626508284000067, 13.925859849000062 ], [ 100.611131830000033, 13.899779846000172 ], [ 100.594813283000121, 13.887630844000057 ], [ 100.582877328999984, 13.890667098000051 ], [ 100.587478445000045, 13.899376195000116 ], [ 100.571789460000161, 13.906954042000109 ], [ 100.563183291000144, 13.913334308000117 ], [ 100.558893117000082, 13.914457016000085 ], [ 100.567639714, 13.95158730300011 ], [ 100.574060669000062, 13.954633216 ], [ 100.591784818000122, 13.950337601000115 ], [ 100.60567714300015, 13.944099922000134 ], [ 100.60422515, 13.954255192000176 ], [ 100.613889496000127, 13.954619222000076 ] ] ] } },
{ "type": "Feature", "properties": { "name": "Ratchathewi" }, "geometry": { "type": "Polygon", "coordinates": [ [ [ 100.527886491000174, 13.774338363000084 ], [ 100.55039728200012, 13.758688550000102 ], [ 100.552509364000116, 13.755973594000181 ], [ 100.564968500000134, 13.755126213000153 ], [ 100.563297444000114, 13.747890403000099 ], [ 100.538907552000182, 13.749653206000175 ], [ 100.525352544000043, 13.749296007 ], [ 100.519166718000179, 13.752732672000093 ], [ 100.527886491000174, 13.774338363000084 ] ] ] } },
{ "type": "Feature", "properties": { "name": "Lat Phrao" }, "geometry": { "type": "Polygon", "coordinates": [ [ [ 100.608561223000038, 13.849134687000117 ], [ 100.620489128000088, 13.848215271000072 ], [ 100.628681464000067, 13.842687044000172 ], [ 100.632949283000187, 13.842546298000059 ], [ 100.637121758000148, 13.844668458000172 ], [ 100.612894636000021, 13.794814783000049 ], [ 100.599642366000069, 13.796130584000082 ], [ 100.595919295000158, 13.799296216000187 ], [ 100.59640186900009, 13.801275539000073 ], [ 100.58834163400013, 13.802941673000078 ], [ 100.58914278400016, 13.824092101000019 ], [ 100.591117974000156, 13.837485107000077 ], [ 100.589866099000062, 13.843929078000087 ], [ 100.608561223000038, 13.849134687000117 ] ] ] } },
{ "type": "Feature", "properties": { "name": "Vadhana" }, "geometry": { "type": "Polygon", "coordinates": [ [ [ 100.560359420000168, 13.748370609 ], [ 100.598151930000029, 13.741144634000136 ], [ 100.598465893000196, 13.738299169000186 ], [ 100.60502214100012, 13.737714568 ], [ 100.605281719000118, 13.720144007000101 ], [ 100.606805379000093, 13.719028681000168 ], [ 100.606738113000176, 13.71614380800014 ], [ 100.6054693170002, 13.713943273000041 ], [ 100.602469250000013, 13.713404697000101 ], [ 100.601879566000093, 13.711945774000071 ], [ 100.605742550000173, 13.70650927100013 ], [ 100.601658937000025, 13.704666227000018 ], [ 100.598406456000134, 13.710325389000047 ], [ 100.554163756000037, 13.741575566000108 ], [ 100.550695327000199, 13.742848937000019 ], [ 100.550075438000135, 13.748403346000146 ], [ 100.560359420000168, 13.748370609 ] ] ] } },
{ "type": "Feature", "properties": { "name": "Bang Khae" }, "geometry": { "type": "Polygon", "coordinates": [ [ [ 100.366087724000124, 13.75391084 ], [ 100.389767097000174, 13.75200401799998 ], [ 100.413389564000056, 13.74793375400003 ], [ 100.414408079000054, 13.738800737000076 ], [ 100.41597292400013, 13.738278807000086 ], [ 100.415511016000096, 13.735832908000134 ], [ 100.416668108000067, 13.735610698000016 ], [ 100.417756244000032, 13.731224288000021 ], [ 100.424869590000128, 13.732060242000102 ], [ 100.427821371000164, 13.68761303000008 ], [ 100.392759117000082, 13.669048136000015 ], [ 100.388385140000139, 13.668039860000079 ], [ 100.387422628000081, 13.67045199 ], [ 100.384844482000062, 13.67140188400009 ], [ 100.385235775000012, 13.675939875000154 ], [ 100.381343726000125, 13.691738096000165 ], [ 100.352677271000175, 13.752049424 ], [ 100.366087724000124, 13.75391084 ] ] ] } },
{ "type": "Feature", "properties": { "name": "Lak Si" }, "geometry": { "type": "Polygon", "coordinates": [ [ [ 100.582964010000182, 13.890643684000111 ], [ 100.594813283000121, 13.887630844000057 ], [ 100.588143762000129, 13.879615240000135 ], [ 100.586547205000102, 13.858933982999986 ], [ 100.557895100000053, 13.854132105000076 ], [ 100.543629472000077, 13.849628112000175 ], [ 100.558893117000082, 13.914457016000085 ], [ 100.563183291000144, 13.913334308000117 ], [ 100.571789460000161, 13.906954042000109 ], [ 100.587478445000045, 13.899376195000116 ], [ 100.582964010000182, 13.890643684000111 ] ] ] } },
{ "type": "Feature", "properties": { "name": "Sai Mai" }, "geometry": { "type": "Polygon", "coordinates": [ [ [ 100.663195485000017, 13.930404936000116 ], [ 100.689730812000107, 13.931053496000175 ], [ 100.689301392000061, 13.925883855000052 ], [ 100.687123487000122, 13.920832051000048 ], [ 100.687519173000169, 13.917259812000168 ], [ 100.683737916000041, 13.913473367000165 ], [ 100.683640052000101, 13.91156349400012 ], [ 100.686966261000066, 13.90935148900013 ], [ 100.69228964000007, 13.898095745000035 ], [ 100.692111054, 13.886731693000172 ], [ 100.690121520000105, 13.88470925200005 ], [ 100.68992699100005, 13.879699570000184 ], [ 100.684496507000176, 13.874248293000051 ], [ 100.681312140000045, 13.879676755000162 ], [ 100.675809233000109, 13.879105021999976 ], [ 100.673808066000163, 13.881099593999977 ], [ 100.672530973999983, 13.879678031000083 ], [ 100.669335445, 13.881132976000117 ], [ 100.664812316000166, 13.881073327000024 ], [ 100.662531656000112, 13.878854804000071 ], [ 100.659592068000052, 13.879494058000034 ], [ 100.656186107000053, 13.881507505000116 ], [ 100.655336638000051, 13.885582849000116 ], [ 100.653111064000086, 13.886380402000157 ], [ 100.652509477000137, 13.88292603400015 ], [ 100.644246154000086, 13.882761448 ], [ 100.643093156000077, 13.883244429000115 ], [ 100.64295285500009, 13.885728264000022 ], [ 100.640195117000189, 13.886752243999979 ], [ 100.633979397000132, 13.885162089000119 ], [ 100.629542807000064, 13.885542878000138 ], [ 100.6238832370002, 13.88293940300008 ], [ 100.611238287000049, 13.886622702000125 ], [ 100.608859114000097, 13.888332373000082 ], [ 100.61136552500011, 13.892394935000141 ], [ 100.60869668800018, 13.895703521000144 ], [ 100.626593625999988, 13.926129569000182 ], [ 100.62254545900015, 13.950251041000058 ], [ 100.625394187000154, 13.947849156000188 ], [ 100.62552439500007, 13.938205280000034 ], [ 100.639771708000012, 13.937588141000049 ], [ 100.639614431000098, 13.932372588000078 ], [ 100.641015073000176, 13.931377428000133 ], [ 100.663195485000017, 13.930404936000116 ] ] ] } },
{ "type": "Feature", "properties": { "name": "Khan Na Yao" }, "geometry": { "type": "Polygon", "coordinates": [ [ [ 100.668093521000117, 13.856583087 ], [ 100.675457492000191, 13.856381383000041 ], [ 100.670828463000078, 13.853530819000071 ], [ 100.670970665000141, 13.852566076000073 ], [ 100.680257767000114, 13.850210854000068 ], [ 100.683848069000135, 13.848130456999968 ], [ 100.685570035000183, 13.845236651 ], [ 100.6879371240002, 13.834643999000036 ], [ 100.690644479000127, 13.83235102000009 ], [ 100.695302672000139, 13.824170408000043 ], [ 100.697044026000185, 13.820223163000037 ], [ 100.6975319780002, 13.812674591000189 ], [ 100.701864077000096, 13.809140273000139 ], [ 100.70056308400018, 13.80458324500006 ], [ 100.70496396600015, 13.797679626 ], [ 100.6751353410001, 13.781205881000062 ], [ 100.673803720000137, 13.783834504000026 ], [ 100.676566690000129, 13.786744 ], [ 100.674646481000138, 13.790120658000035 ], [ 100.673539328000118, 13.796316345000093 ], [ 100.668683263000048, 13.805671519000043 ], [ 100.666646813000114, 13.805101250000178 ], [ 100.664030007000179, 13.809995088000107 ], [ 100.662866591000181, 13.810090302000162 ], [ 100.660132313000076, 13.824427495000066 ], [ 100.661265643000036, 13.825779140000066 ], [ 100.66142267000015, 13.833478608000121 ], [ 100.657906247000085, 13.832988452000109 ], [ 100.657304995000061, 13.835574575000123 ], [ 100.648599748000038, 13.833888783000077 ], [ 100.647726515000159, 13.84416764600013 ], [ 100.650214966000078, 13.844833143000187 ], [ 100.645986850000043, 13.847368251000148 ], [ 100.648148988000059, 13.847620618000178 ], [ 100.648730639000121, 13.84621126899998 ], [ 100.658640148000131, 13.847763352000072 ], [ 100.658303030000127, 13.852391377000117 ], [ 100.66114468700016, 13.852579409000043 ], [ 100.663199931000065, 13.856033389000174 ], [ 100.664746781000133, 13.854693028000042 ], [ 100.668093521000117, 13.856583087 ] ] ] } },
{ "type": "Feature", "properties": { "name": "Saphan Sung" }, "geometry": { "type": "Polygon", "coordinates": [ [ [ 100.716403176000199, 13.778113848000089 ], [ 100.716080259000023, 13.771690494000097 ], [ 100.706606315000045, 13.756760642000074 ], [ 100.709858230000123, 13.75640150300012 ], [ 100.708393226000055, 13.732496905000062 ], [ 100.659010556000055, 13.737862488000189 ], [ 100.663330947000077, 13.740227551000032 ], [ 100.663034630000141, 13.74220629500013 ], [ 100.666318117000117, 13.747047328000065 ], [ 100.672255852000148, 13.749486771000022 ], [ 100.67701455200006, 13.749064367000017 ], [ 100.678886566000074, 13.752104317000033 ], [ 100.669718972000055, 13.756283395000139 ], [ 100.668802897000035, 13.766623625000022 ], [ 100.664624408000066, 13.775369817000183 ], [ 100.70608059000017, 13.798328004000041 ], [ 100.714717951000125, 13.78326684200016 ], [ 100.716403176000199, 13.778113848000089 ] ] ] } },
{ "type": "Feature", "properties": { "name": "Wang Thonglang" }, "geometry": { "type": "Polygon", "coordinates": [ [ [ 100.588383019999981, 13.802839008000035 ], [ 100.59640186900009, 13.801275539000073 ], [ 100.595919295000158, 13.799296216000187 ], [ 100.599593297000183, 13.796149396000033 ], [ 100.605351776000134, 13.795166916000142 ], [ 100.612894636000021, 13.794814783000049 ], [ 100.615064201000052, 13.799774373000048 ], [ 100.623636508000118, 13.800218648000111 ], [ 100.6259130790001, 13.788103773000046 ], [ 100.629049330000157, 13.788697543000126 ], [ 100.630651760000035, 13.784153807000052 ], [ 100.629248748000123, 13.775091386000156 ], [ 100.628272913000103, 13.775646442000038 ], [ 100.630489333000185, 13.763254790000076 ], [ 100.615246889000048, 13.761274456000024 ], [ 100.604095120000068, 13.751200633000053 ], [ 100.597924834000082, 13.757321488000116 ], [ 100.594910887000196, 13.762585534000152 ], [ 100.593156423000153, 13.772623803000158 ], [ 100.593521342000088, 13.779423726000118 ], [ 100.590059893000102, 13.787120909000066 ], [ 100.588383019999981, 13.802839008000035 ] ] ] } },
{ "type": "Feature", "properties": { "name": "Khlong Sam Wa" }, "geometry": { "type": "Polygon", "coordinates": [ [ [ 100.792593024000041, 13.931387879 ], [ 100.792337659000168, 13.893505661 ], [ 100.79593385600009, 13.890548881000143 ], [ 100.79094480800012, 13.881906568000147 ], [ 100.787421596000115, 13.879987173000075 ], [ 100.799462654000195, 13.849539574000119 ], [ 100.749318425000183, 13.822072196000136 ], [ 100.748660519000111, 13.823929276000172 ], [ 100.746728450000035, 13.824752735000175 ], [ 100.744160482000041, 13.83476390800007 ], [ 100.739928537000083, 13.837395750000042 ], [ 100.735889325000187, 13.836785145000079 ], [ 100.735469084000158, 13.838456396000083 ], [ 100.729657680000173, 13.836450860000014 ], [ 100.729732394000109, 13.827673738000158 ], [ 100.722553678000168, 13.827513487000147 ], [ 100.722322673000178, 13.837492275000159 ], [ 100.720192455000131, 13.837278720000143 ], [ 100.720175532000042, 13.831495735000146 ], [ 100.714568682000106, 13.831335459000172 ], [ 100.715436738000164, 13.821897660000104 ], [ 100.705778473000123, 13.821144620000155 ], [ 100.704558224000152, 13.819395041000064 ], [ 100.696775905000095, 13.815492761000144 ], [ 100.697044026000185, 13.820223163000037 ], [ 100.690644479000127, 13.83235102000009 ], [ 100.6879371240002, 13.834643999000036 ], [ 100.687812731000122, 13.838641833000054 ], [ 100.683848069000135, 13.848130456999968 ], [ 100.676875807000044, 13.851633170000184 ], [ 100.670821828000157, 13.852816121000103 ], [ 100.676569788000052, 13.857500304000155 ], [ 100.680365520000066, 13.858667276000062 ], [ 100.683114280000098, 13.862001746000089 ], [ 100.685774761000062, 13.869323983000129 ], [ 100.684598218000133, 13.874633641000116 ], [ 100.68992699100005, 13.879699570000184 ], [ 100.690121520000105, 13.88470925200005 ], [ 100.692109132000041, 13.886715871000092 ], [ 100.69228964000007, 13.898095745000035 ], [ 100.686966261000066, 13.90935148900013 ], [ 100.683662614000184, 13.911464647 ], [ 100.683865913000034, 13.913653140000179 ], [ 100.686953376000133, 13.916254426000137 ], [ 100.752599766000174, 13.918467701 ], [ 100.792593024000041, 13.931387879 ] ] ] } },
{ "type": "Feature", "properties": { "name": "Bang Na" }, "geometry": { "type": "Polygon", "coordinates": [ [ [ 100.622771488000126, 13.684428812000078 ], [ 100.624654929000087, 13.678408503000128 ], [ 100.640236003000155, 13.677941022000084 ], [ 100.645233152000174, 13.669607532000157 ], [ 100.653792291000059, 13.66897558800008 ], [ 100.650813896000102, 13.660428802000069 ], [ 100.649709981000171, 13.652504770000121 ], [ 100.640758193000011, 13.654635846000019 ], [ 100.636277975000041, 13.64850280700017 ], [ 100.630494851000094, 13.649482434000163 ], [ 100.630888458000072, 13.650814368000056 ], [ 100.617843389000143, 13.656061254 ], [ 100.616373793000037, 13.652675052000177 ], [ 100.608212200000196, 13.655920670000114 ], [ 100.60871647, 13.657214762000081 ], [ 100.605561774000137, 13.658477132000087 ], [ 100.603513728000109, 13.65840122000003 ], [ 100.602809619000027, 13.656506618000094 ], [ 100.600436326000079, 13.657379267000067 ], [ 100.600439640000161, 13.659463851999988 ], [ 100.59665522, 13.660692667000149 ], [ 100.59652883800004, 13.662150586000052 ], [ 100.579458378000197, 13.669222685000022 ], [ 100.588769839000122, 13.683015013000045 ], [ 100.600332527000091, 13.679943095000056 ], [ 100.607534625000199, 13.682082277000177 ], [ 100.610524951000173, 13.68427643300015 ], [ 100.622771488000126, 13.684428812000078 ] ] ] } },
{ "type": "Feature", "properties": { "name": "Thawi Watthana" }, "geometry": { "type": "Polygon", "coordinates": [ [ [ 100.32791238700014, 13.804125521000174 ], [ 100.411057705000133, 13.801346720000026 ], [ 100.406184700000097, 13.749437693 ], [ 100.369106359000057, 13.753897702000188 ], [ 100.352683349000131, 13.752164031000177 ], [ 100.359359482000173, 13.738002047000123 ], [ 100.337455281000132, 13.736036288999969 ], [ 100.334988058000192, 13.747094624000056 ], [ 100.335384389000183, 13.753286999000181 ], [ 100.334479133000059, 13.755217604000165 ], [ 100.332777558000089, 13.755373314000053 ], [ 100.333024654000099, 13.759589177000123 ], [ 100.331565506000118, 13.759974593000038 ], [ 100.332575402000032, 13.760676300000057 ], [ 100.330111964000139, 13.762374415000181 ], [ 100.330940237, 13.777563648000068 ], [ 100.331963368, 13.777622231 ], [ 100.331904701000042, 13.781375941000078 ], [ 100.333863166000185, 13.781243035000102 ], [ 100.333895026000164, 13.782166670000038 ], [ 100.330696831000125, 13.798145851000129 ], [ 100.32791238700014, 13.804125521000174 ] ] ] } },
{ "type": "Feature", "properties": { "name": "Thung Khru" }, "geometry": { "type": "Polygon", "coordinates": [ [ [ 100.485765764000064, 13.657686764000061 ], [ 100.493252615000188, 13.655744170000048 ], [ 100.494040866000148, 13.657261256000027 ], [ 100.501007841000046, 13.652963113999988 ], [ 100.504741809000109, 13.659430863000011 ], [ 100.50586518800003, 13.658913626000128 ], [ 100.508227019000174, 13.662746407999975 ], [ 100.513280069000075, 13.66074493900004 ], [ 100.517515207000201, 13.661599672000136 ], [ 100.516224358000102, 13.651347356000088 ], [ 100.516954754000096, 13.645709839000176 ], [ 100.515353103000052, 13.64502948300003 ], [ 100.51509583800015, 13.639479597 ], [ 100.518069592000188, 13.634875000000136 ], [ 100.514240487000166, 13.628379719000179 ], [ 100.51643609700011, 13.618692545000158 ], [ 100.516387085000133, 13.612715625000135 ], [ 100.520347250000157, 13.609010611000031 ], [ 100.521037943000181, 13.605141864000075 ], [ 100.513744270000075, 13.602594209000074 ], [ 100.511511381000105, 13.596854386000075 ], [ 100.50481534000005, 13.597696220000103 ], [ 100.499637586000119, 13.595640960000026 ], [ 100.499041699000088, 13.591951688000108 ], [ 100.496706269000128, 13.588894774000153 ], [ 100.49119646000014, 13.586157733000107 ], [ 100.488463269000022, 13.589463622000153 ], [ 100.481938688000128, 13.592678789000161 ], [ 100.480540803000167, 13.598102149000169 ], [ 100.476928897000107, 13.599320183000088 ], [ 100.477768654000045, 13.601804101000084 ], [ 100.476870773000087, 13.603870951000033 ], [ 100.479581718000134, 13.606089841000085 ], [ 100.481712076000179, 13.615343514000074 ], [ 100.47837662500018, 13.619777082999974 ], [ 100.476195008000047, 13.620111494000014 ], [ 100.472069987000054, 13.62461243600012 ], [ 100.475654449, 13.63054298000003 ], [ 100.470070049000185, 13.660184791000063 ], [ 100.482327330000146, 13.663070828 ], [ 100.485765764000064, 13.657686764000061 ] ] ] } },
{ "type": "Feature", "properties": { "name": "Bang Bon" }, "geometry": { "type": "Polygon", "coordinates": [ [ [ 100.437533650000091, 13.693628029000138 ], [ 100.446797058000186, 13.682558432 ], [ 100.376482084000088, 13.619703151000067 ], [ 100.371795935000193, 13.622730904000036 ], [ 100.371571729000095, 13.624907569000129 ], [ 100.368610989000103, 13.630119450000109 ], [ 100.367209667000168, 13.630171153000049 ], [ 100.366005871000198, 13.633624022000049 ], [ 100.359058883000046, 13.632780153999988 ], [ 100.358697088000042, 13.637319 ], [ 100.35544907600007, 13.636540633000038 ], [ 100.354396435000126, 13.640843668000173 ], [ 100.348519681000084, 13.641008958000157 ], [ 100.348606162000181, 13.643725023000115 ], [ 100.347358338000163, 13.643637996999985 ], [ 100.347170575000177, 13.645060569000123 ], [ 100.345449337000048, 13.644725233000088 ], [ 100.344676390000132, 13.649228008000023 ], [ 100.346323811000104, 13.649173861000122 ], [ 100.346837043000107, 13.655339513000058 ], [ 100.349523885, 13.655126660000121 ], [ 100.351107887000182, 13.65748020000018 ], [ 100.356613754000193, 13.65990043000005 ], [ 100.357142799000144, 13.661623113000019 ], [ 100.360565587000053, 13.661301027000036 ], [ 100.383251587000188, 13.671688173000064 ], [ 100.387422628000081, 13.67045199 ], [ 100.388385140000139, 13.668039860000079 ], [ 100.392759117000082, 13.669048136000015 ], [ 100.437533650000091, 13.693628029000138 ] ] ] } }
]
}
